[{"OBJECT_NAME":"STARLINK-30494","OBJECT_ID":"2023-151G","EPOCH":"2026-03-09T08:39:06.366240","MEAN_MOTION":15.28417441,"ECCENTRICITY":0.00011553,"INCLINATION":43.0027,"RA_OF_ASC_NODE":192.4566,"ARG_OF_PERICENTER":241.5536,"MEAN_ANOMALY":118.52,"EPHEMERIS_TYPE":0,"CLASSIFICATION_TYPE":"U","NORAD_CAT_ID":57970,"ELEMENT_SET_NO":999,"REV_AT_EPOCH":13740,"BSTAR":-3.569111e-5,"MEAN_MOTION_DOT":-1.272e-5,"MEAN_MOTION_DDOT":0},{"OBJECT_NAME":"STARLINK-34601","OBJECT_ID":"2025-167G","EPOCH":"2026-03-09T04:57:28.475712","MEAN_MOTION":15.30186675,"ECCENTRICITY":0.00012305,"INCLINATION":53.1619,"RA_OF_ASC_NODE":29.0619,"ARG_OF_PERICENTER":87.4764,"MEAN_ANOMALY":272.6377,"EPHEMERIS_TYPE":0,"CLASSIFICATION_TYPE":"U","NORAD_CAT_ID":65084,"ELEMENT_SET_NO":999,"REV_AT_EPOCH":3340,"BSTAR":0.00065799119,"MEAN_MOTION_DOT":0.00019171,"MEAN_MOTION_DDOT":0}]
