STARLINK-30494          
1 57970U 23151G   26068.36049035 -.00001272  00000+0 -35691-4 0  9993
2 57970  43.0027 192.4566 0001155 241.5536 118.5200 15.28417441137406
STARLINK-34601          
1 65084U 25167G   26068.20657958  .00019171  00000+0  65799-3 0  9995
2 65084  53.1619  29.0619 0001230  87.4764 272.6377 15.30186675 33405
